satname,norad_id,inclination_deg,eccentricity,mean_motion_rev_per_day,perigee_km,apogee_km,l1,l2
STARLINK-1255,45399,53.0542,0.0001045,15.06404929,546.4727539587138,547.920148650036,1 45399U 20019AR  25249.23934876 -.00000433  00000+0 -10204-4 0  9998,2 45399  53.0542 244.6507 0001045  87.3845 272.7264 15.06404929302155
STARLINK-1259,45403,53.0499,0.0011288,15.76755025,332.0586582055157,347.22471536880676,1 45403U 20019AV  25249.25002315  .00158713  00000+0  95108-3 0  9998,2 45403  53.0499 216.1415 0011288  30.6662 276.3012 15.76755025  5921
STARLINK-1260,45404,53.0526,0.0001265,15.06395391,546.3496255159625,548.1017422749874,1 45404U 20019AW  25249.27252335 -.00001056  00000+0 -51992-4 0  9993,2 45404  53.0526 244.5026 0001265  88.2357 271.8776 15.06395391302061
STARLINK-1263,45405,53.0545,9.95e-05,15.06395564,546.5360801384495,547.9142272070294,1 45405U 20019AX  25249.25778046 -.00000224  00000+0  38471-5 0  9997,2 45405  53.0545 244.5674 0000995  83.6360 276.4742 15.06395564302060
STARLINK-1265,45406,53.0539,0.0001477,15.06403732,546.1772476267861,548.2229922120114,1 45406U 20019AY  25249.26514922  .00000281  00000+0  37787-4 0  9990,2 45406  53.0539 244.5331 0001477  91.4482 268.6676 15.06403732302068
STARLINK-1278,45408,53.0541,0.0001287,15.06396109,546.3321894243363,548.1147772127433,1 45408U 20019BA  25249.29187488 -.00000981  00000+0 -46990-4 0  9993,2 45408  53.0541 274.4156 0001287  87.9899 272.1237 15.06396109301657
STARLINK-1296,45412,53.0541,0.0001427,15.0640016,546.222820392124,548.1993147306075,1 45412U 20019BE  25249.26883213  .00000234  00000+0  34636-4 0  9997,2 45412  53.0541 244.5183 0001427  87.3776 272.7376 15.06400160302063
STARLINK-1298,45413,53.0523,0.0008481,15.39541027,441.6767681343117,453.2543551994113,1 45413U 20019BF  25249.22819348  .00148424  00000+0  36546-2 0  9996,2 45413  53.0523 236.2226 0008481  30.8728 329.2772 15.39541027302272
STARLINK-1309,45414,53.0543,0.0001194,15.06407148,546.362766432343,548.0165344364668,1 45414U 20019BG  25249.28357635  .00000371  00000+0  43774-4 0  9990,2 45414  53.0543 244.4514 0001194  82.6476 277.4649 15.06407148302057
STARLINK-1316,45415,53.0543,0.0001492,15.06397028,546.1874033413351,548.2539300690796,1 45415U 20019BH  25249.24303350 -.00000477  00000+0 -13127-4 0  9990,2 45415  53.0543 244.6311 0001492  87.0975 273.0185 15.06397028302084
STARLINK-1318,45416,53.0535,0.0001091,15.54406474,403.1385672727356,404.61840305159785,1 45416U 20019BJ  25249.23288033  .00053839  00000+0  80782-3 0  9998,2 45416  53.0535 232.2453 0001091  98.7913 261.3221 15.54406474302240
STARLINK-1286,45417,53.0529,0.0001199,15.06404912,546.3661559195853,548.0268508937024,1 45417U 20019BK  25249.28083339  .00004156  00000+0  29766-3 0  9999,2 45417  53.0529 274.4672 0001199 100.8737 259.2387 15.06404912301928
STARLINK-1308,45419,53.0537,0.0001268,15.06402831,546.3247482476509,548.08101444156,1 45419U 20019BM  25249.27713234  .00002261  00000+0  17061-3 0  9994,2 45419  53.0537 274.4838 0001268  86.9312 273.1822 15.06402831301672
STARLINK-1329,45531,53.0546,0.0001238,15.06399752,546.3549597770925,548.0696762682337,1 45531U 20025A   25249.17945250 -.00000358  00000+0 -51569-5 0  9990,2 45531  53.0546 214.9179 0001238  87.5205 272.5926 15.06399752297285
STARLINK-1338,45532,53.0534,0.0001374,15.06398693,546.2640202656785,548.1671071501851,1 45532U 20025B   25249.12415903 -.00000691  00000+0 -27473-4 0  9999,2 45532  53.0534 215.1660 0001374  82.5984 277.5161 15.06398693297279
STARLINK-1350,45535,53.0748,0.0002955,15.3071294,471.65923764509535,475.70866382698114,1 45535U 20025E   25249.20842558  .00016622  00000+0  56307-3 0  9997,2 45535  53.0748 175.9671 0002955  89.7981 270.3358 15.30712940297851
STARLINK-1362,45538,53.0557,0.0001424,15.0639727,546.2337541815996,548.2060958338425,1 45538U 20025H   25249.22270428  .00000328  00000+0  40905-4 0  9997,2 45538  53.0557 214.4425 0001424  84.9562 275.1590 15.06397270297297
STARLINK-1368,45540,53.0548,0.0001699,15.06397816,546.041633734566,548.3948694490564,1 45540U 20025K   25249.22736796 -.00000319  00000+0 -25341-5 0  9995,2 45540  53.0548 214.7018 0001699 121.8251 238.2903 15.06397816297284
STARLINK-1371,45542,53.054,0.0001376,15.06400587,546.2568311543846,548.1626865824246,1 45542U 20025M   25249.19787740 -.00000273  00000+0  56245-6 0  9994,2 45542  53.0540 214.8367 0001376  90.4714 269.6433 15.06400587297289
STARLINK-1372,45543,53.0548,0.0001443,15.06399293,546.2143966827107,548.2130529018868,1 45543U 20025N   25249.16839232 -.00000169  00000+0  75463-5 0  9992,2 45543  53.0548 214.9673 0001443  90.9877 269.1278 15.06399293296371
STARLINK-1373,45544,53.0547,0.000147,15.06401845,546.1878778779947,548.2239286915592,1 45544U 20025P   25249.18681903 -.00000404  00000+0 -82221-5 0  9998,2 45544  53.0547 214.8874 0001470  92.4306 267.6851 15.06401845297285
STARLINK-1294,45551,53.0522,0.0005981,15.47661622,419.50053278424,427.6367330623434,1 45551U 20025W   25249.25002315  .00214707  00000+0  39842-2 0  9997,2 45551  53.0522 166.5276 0005981 129.6405 175.6340 15.47661622  6015
STARLINK-1323,45553,53.0399,0.0009533,15.83407929,314.42526965800425,327.19748463386986,1 45553U 20025Y   25249.25002315  .00151237  00000+0  67017-3 0  9993,2 45553  53.0399 153.4441 0009533  54.9120  87.2260 15.83407929  5824
STARLINK-1325,45554,53.0619,0.0001146,15.44817744,431.13321617212114,432.6940797806383,1 45554U 20025Z   25249.15527866  .00065896  00000+0  13813-2 0  9995,2 45554  53.0619 158.3331 0001146 136.2323 223.8774 15.44817744298080
STARLINK-1327,45555,53.0553,0.0001427,15.06393763,546.2424235439285,548.2189234779489,1 45555U 20025AA  25249.22553355  .00004448  00000+0  31738-3 0  9999,2 45555  53.0553 194.7105 0001427  86.9933 273.1220 15.06393763297565
STARLINK-1336,45557,53.0419,0.0010975,15.77969133,328.82643966965315,343.5643993304557,1 45557U 20025AC  25249.25002315  .00151038  00000+0  85861-3 0  9993,2 45557  53.0419 158.3997 0010975  63.9052 114.5855 15.77969133  5970
STARLINK-1342,45558,53.0483,0.0008834,15.86237487,306.9317284532035,318.7533511040847,1 45558U 20025AD  25249.25002315  .00315988  00000+0  11977-2 0  9996,2 45558  53.0483 155.9943 0008834  63.2343  32.6268 15.86237487  6107
STARLINK-1355,45563,53.0327,0.0004946,15.97600128,277.78557978817753,284.37287648104757,1 45563U 20025AJ  25249.25002315  .00359200  63939-4  78866-3 0  9993,2 45563  53.0327  86.1525 0004946 263.5339 143.9813 15.97600128  6022
STARLINK-1356,45564,53.0535,0.0001078,15.06392067,546.4893163518636,547.9824267429703,1 45564U 20025AK  25249.22921714  .00010063  00000+0  69365-3 0  9994,2 45564  53.0535 194.6923 0001078  91.6503 268.4609 15.06392067297564
STARLINK-1357,45565,53.0649,0.0008022,15.23848479,488.73238189422227,499.7584322281118,1 45565U 20025AL  25249.23793048  .00091960  00000+0  37290-2 0  9999,2 45565  53.0649 187.8546 0008022  61.9801 298.2006 15.23848479297668
STARLINK-1361,45567,53.0532,0.0001352,15.06402241,546.2683834081208,548.1409958009899,1 45567U 20025AN  25249.11494481  .00001302  00000+0  10627-3 0  9994,2 45567  53.0532 195.2084 0001352  89.2395 270.8749 15.06402241297553
STARLINK-1363,45568,53.0527,0.0001538,15.06416592,546.0955955274803,548.225817101943,1 45568U 20025AP  25249.26242920  .00007918  00000+0  54963-3 0  9990,2 45568  53.0527 194.7865 0001538  97.3704 262.7459 15.06416592297562
STARLINK-1366,45569,53.0548,0.0001372,15.06389035,546.2950018549373,548.1953267208164,1 45569U 20025AQ  25249.11864025  .00003703  00000+0  26740-3 0  9991,2 45569  53.0548 195.1897 0001372  85.4004 274.7141 15.06389035297543
STARLINK-1376,45570,53.0542,0.000141,15.06411805,546.1989085045507,548.1518465950185,1 45570U 20025AR  25249.24395709  .00004682  00000+0  33291-3 0  9991,2 45570  53.0542 194.6269 0001410  92.1787 267.9363 15.06411805297565
STARLINK-1320,45572,53.0619,0.0008429,15.33621121,459.25111607092185,470.78730881385763,1 45572U 20025AT  25249.15603993  .00062293  00000+0  18835-2 0  9998,2 45572  53.0619 150.6132 0008429 116.2882 243.8986 15.33621121298192
STARLINK-1321,45573,53.0541,0.0001297,15.06407675,546.2898206114778,548.0862499256264,1 45573U 20025AU  25249.23012775  .00005001  00000+0  35432-3 0  9997,2 45573  53.0541 184.6880 0001297 102.0337 258.0798 15.06407675297406
STARLINK-1328,45576,53.0549,0.0001433,15.485404,420.0208165712147,421.9694478403044,1 45576U 20025AX  25249.25002315  .01468866  00000+0  24572-1 0  9995,2 45576  53.0549 181.5480 0001433  84.2694 229.6925 15.48540400  5849
STARLINK-1331,45578,53.0539,0.0001436,15.06398726,546.2209819539157,548.2099431811639,1 45578U 20025AZ  25249.14168475  .00002805  00000+0  20714-3 0  9997,2 45578  53.0539 185.0863 0001436  88.8097 271.3056 15.06398726297707
STARLINK-1333,45580,53.0536,0.0001185,15.0639886,546.3943976581431,548.035706094438,1 45580U 20025BB  25249.14811664 -.00000338  00000+0 -38357-5 0  9990,2 45580  53.0536 195.0596 0001185  90.1903 269.9221 15.06398860297553
STARLINK-1335,45581,53.0542,0.0001359,15.06408765,546.2435433876262,548.125845824221,1 45581U 20025BC  25249.08638577  .00005639  00000+0  39709-3 0  9991,2 45581  53.0542 185.3346 0001359  88.8418 271.2727 15.06408765297681
STARLINK-1337,45582,53.0545,0.0001386,15.06410038,546.2209440387296,548.140642130973,1 45582U 20025BD  25249.24119234  .00005788  00000+0  40706-3 0  9998,2 45582  53.0545 184.6394 0001386  96.6730 263.4417 15.06410038297702
STARLINK-1347,45586,53.0561,0.0007402,15.23183847,491.1559927377875,501.33282697693994,1 45586U 20025BH  25249.07844635  .00089184  00000+0  36906-2 0  9991,2 45586  53.0561 178.8370 0007402  68.2673 291.9110 15.23183847297765
STARLINK-1349,45587,53.0442,4.28e-05,16.01247908,270.6772926204403,271.24645548405897,1 45587U 20025BJ  25248.97948530  .00878744  38408-3  15688-2 0  9998,2 45587  53.0442 138.3209 0000428 113.7460 246.3615 16.01247908298331
